{"type": "FeatureCollection", "features": [ {"type": "Feature", "properties": {"norad_id": 17070, "name": "POLAR BEAR", "group": "nnss", "lat": 81.49780712883825, "lon": -173.30883407723078, "alt_km": 960.3194498048588, "timestamp": "2025-12-03T17:47:50.986298+00:00", "meta": {"OBJECT_NAME": "POLAR BEAR", "OBJECT_ID": "1986-088A", "EPOCH": "2025-12-03T12:27:51.998112", "MEAN_MOTION": 13.75247876, "ECCENTRICITY": 0.0040303, "INCLINATION": 89.618, "RA_OF_ASC_NODE": 184.1423, "ARG_OF_PERICENTER": 146.1086, "MEAN_ANOMALY": 276.3577, "EPHEMERIS_TYPE": 0, "CLASSIFICATION_TYPE": "U", "NORAD_CAT_ID": 17070, "ELEMENT_SET_NO": 999, "REV_AT_EPOCH": 95852, "BSTAR": 0.00015166, "MEAN_MOTION_DOT": 1.58e-06, "MEAN_MOTION_DDOT": 0}, "tle": {"line1": "1 17070U 86088A   25337.51935183  .00000158  00000+0  15166-3 0  9995", "line2": "2 17070  89.6180 184.1423 0040303 146.1086 276.3577 13.75247876958524"}}, "geometry": {"type": "Point", "coordinates": [-173.30883407723078, 81.49780712883825]}}, {"type": "Feature", "properties": {"norad_id": 18361, "name": "OSCAR 27", "group": "nnss", "lat": -60.83308602284667, "lon": -101.73520249957005, "alt_km": 1022.7977661912764, "timestamp": "2025-12-03T17:47:50.986308+00:00", "meta": {"OBJECT_NAME": "OSCAR 27", "OBJECT_ID": "1987-080A", "EPOCH": "2025-12-03T07:40:10.390080", "MEAN_MOTION": 13.44903559, "ECCENTRICITY": 0.0102354, "INCLINATION": 90.3742, "RA_OF_ASC_NODE": 78.9199, "ARG_OF_PERICENTER": 251.1517, "MEAN_ANOMALY": 107.8509, "EPHEMERIS_TYPE": 0, "CLASSIFICATION_TYPE": "U", "NORAD_CAT_ID": 18361, "ELEMENT_SET_NO": 999, "REV_AT_EPOCH": 87430, "BSTAR": 0.00021414, "MEAN_MOTION_DOT": 1.37e-06, "MEAN_MOTION_DDOT": 0}, "tle": {"line1": "1 18361U 87080A   25337.31956470  .00000137  00000+0  21414-3 0  9992", "line2": "2 18361  90.3742  78.9199 0102354 251.1517 107.8509 13.44903559874301"}}, "geometry": {"type": "Point", "coordinates": [-101.73520249957005, -60.83308602284667]}}, {"type": "Feature", "properties": {"norad_id": 18362, "name": "OSCAR 29", "group": "nnss", "lat": -87.83294279549439, "lon": -110.58849187361443, "alt_km": 1023.1198959674111, "timestamp": "2025-12-03T17:47:50.986318+00:00", "meta": {"OBJECT_NAME": "OSCAR 29", "OBJECT_ID": "1987-080B", "EPOCH": "2025-12-03T07:49:55.668000", "MEAN_MOTION": 13.44445634, "ECCENTRICITY": 0.0103692, "INCLINATION": 90.3756, "RA_OF_ASC_NODE": 79.3783, "ARG_OF_PERICENTER": 274.5664, "MEAN_ANOMALY": 144.9127, "EPHEMERIS_TYPE": 0, "CLASSIFICATION_TYPE": "U", "NORAD_CAT_ID": 18362, "ELEMENT_SET_NO": 999, "REV_AT_EPOCH": 87383, "BSTAR": 0.00017774, "MEAN_MOTION_DOT": 1.14e-06, "MEAN_MOTION_DDOT": 0}, "tle": {"line1": "1 18362U 87080B   25337.32633875  .00000114  00000+0  17774-3 0  9994", "line2": "2 18362  90.3756  79.3783 0103692 274.5664 144.9127 13.44445634873839"}}, "geometry": {"type": "Point", "coordinates": [-110.58849187361443, -87.83294279549439]}}, {"type": "Feature", "properties": {"norad_id": 19070, "name": "OSCAR 23", "group": "nnss", "lat": -43.06738653513643, "lon": -164.1879283259045, "alt_km": 1026.2867694348388, "timestamp": "2025-12-03T17:47:50.986328+00:00", "meta": {"OBJECT_NAME": "OSCAR 23", "OBJECT_ID": "1988-033A", "EPOCH": "2025-12-03T09:30:06.350112", "MEAN_MOTION": 13.27784917, "ECCENTRICITY": 0.0188754, "INCLINATION": 90.3223, "RA_OF_ASC_NODE": 16.1027, "ARG_OF_PERICENTER": 205.9437, "MEAN_ANOMALY": 165.0951, "EPHEMERIS_TYPE": 0, "CLASSIFICATION_TYPE": "U", "NORAD_CAT_ID": 19070, "ELEMENT_SET_NO": 999, "REV_AT_EPOCH": 82129, "BSTAR": 0.0002237, "MEAN_MOTION_DOT": 1.19e-06, "MEAN_MOTION_DDOT": 0}, "tle": {"line1": "1 19070U 88033A   25337.39590683  .00000119  00000+0  22370-3 0  9999", "line2": "2 19070  90.3223  16.1027 0188754 205.9437 165.0951 13.27784917821296"}}, "geometry": {"type": "Point", "coordinates": [-164.1879283259045, -43.06738653513643]}}, {"type": "Feature", "properties": {"norad_id": 19071, "name": "OSCAR 32", "group": "nnss", "lat": -31.38477182261431, "lon": 16.441789743597973, "alt_km": 1262.4599973926252, "timestamp": "2025-12-03T17:47:50.986338+00:00", "meta": {"OBJECT_NAME": "OSCAR 32", "OBJECT_ID": "1988-033B", "EPOCH": "2025-12-03T08:58:34.375872", "MEAN_MOTION": 13.2795205, "ECCENTRICITY": 0.0187576, "INCLINATION": 90.3227, "RA_OF_ASC_NODE": 16.2333, "ARG_OF_PERICENTER": 192.8373, "MEAN_ANOMALY": 178.2823, "EPHEMERIS_TYPE": 0, "CLASSIFICATION_TYPE": "U", "NORAD_CAT_ID": 19071, "ELEMENT_SET_NO": 999, "REV_AT_EPOCH": 82141, "BSTAR": 0.00018697, "MEAN_MOTION_DOT": 1.01e-06, "MEAN_MOTION_DDOT": 0}, "tle": {"line1": "1 19071U 88033B   25337.37400898  .00000101  00000+0  18697-3 0  9994", "line2": "2 19071  90.3227  16.2333 0187576 192.8373 178.2823 13.27952050821419"}}, "geometry": {"type": "Point", "coordinates": [16.441789743597973, -31.38477182261431]}}, {"type": "Feature", "properties": {"norad_id": 19223, "name": "NOVA 2", "group": "nnss", "lat": -33.666561403062815, "lon": 78.27507010509306, "alt_km": 1173.3841687191434, "timestamp": "2025-12-03T17:47:50.986348+00:00", "meta": {"OBJECT_NAME": "NOVA 2", "OBJECT_ID": "1988-052A", "EPOCH": "2025-12-03T12:34:20.825760", "MEAN_MOTION": 13.22934209, "ECCENTRICITY": 0.0031322, "INCLINATION": 89.9873, "RA_OF_ASC_NODE": 78.2838, "ARG_OF_PERICENTER": 41.7206, "MEAN_ANOMALY": 328.8002, "EPHEMERIS_TYPE": 0, "CLASSIFICATION_TYPE": "U", "NORAD_CAT_ID": 19223, "ELEMENT_SET_NO": 999, "REV_AT_EPOCH": 80826, "BSTAR": 0.00016222, "MEAN_MOTION_DOT": 7.7e-07, "MEAN_MOTION_DDOT": 0}, "tle": {"line1": "1 19223U 88052A   25337.52385215  .00000077  00000+0  16222-3 0  9990", "line2": "2 19223  89.9873  78.2838 0031322  41.7206 328.8002 13.22934209808262"}}, "geometry": {"type": "Point", "coordinates": [78.27507010509306, -33.666561403062815]}}, {"type": "Feature", "properties": {"norad_id": 19419, "name": "OSCAR 25", "group": "nnss", "lat": 54.421795533992295, "lon": -159.73572071539107, "alt_km": 1152.9970613678033, "timestamp": "2025-12-03T17:47:50.986359+00:00", "meta": {"OBJECT_NAME": "OSCAR 25", "OBJECT_ID": "1988-074A", "EPOCH": "2025-12-03T10:04:04.397376", "MEAN_MOTION": 13.42620515, "ECCENTRICITY": 0.009422, "INCLINATION": 90.0357, "RA_OF_ASC_NODE": 20.2132, "ARG_OF_PERICENTER": 272.9244, "MEAN_ANOMALY": 97.422, "EPHEMERIS_TYPE": 0, "CLASSIFICATION_TYPE": "U", "NORAD_CAT_ID": 19419, "ELEMENT_SET_NO": 999, "REV_AT_EPOCH": 82515, "BSTAR": 0.0002535, "MEAN_MOTION_DOT": 1.55e-06, "MEAN_MOTION_DDOT": 0}, "tle": {"line1": "1 19419U 88074A   25337.41949534  .00000155  00000+0  25350-3 0  9998", "line2": "2 19419  90.0357  20.2132 0094220 272.9244  97.4220 13.42620515825151"}}, "geometry": {"type": "Point", "coordinates": [-159.73572071539107, 54.421795533992295]}}, {"type": "Feature", "properties": {"norad_id": 19420, "name": "OSCAR 31", "group": "nnss", "lat": 12.044819951590338, "lon": 20.55485911500844, "alt_km": 1119.4250280148299, "timestamp": "2025-12-03T17:47:50.986368+00:00", "meta": {"OBJECT_NAME": "OSCAR 31", "OBJECT_ID": "1988-074B", "EPOCH": "2025-12-03T03:31:40.916640", "MEAN_MOTION": 13.42582141, "ECCENTRICITY": 0.00924436, "INCLINATION": 90.0372, "RA_OF_ASC_NODE": 20.5606, "ARG_OF_PERICENTER": 267.8245, "MEAN_ANOMALY": 111.3176, "EPHEMERIS_TYPE": 0, "CLASSIFICATION_TYPE": "U", "NORAD_CAT_ID": 19420, "ELEMENT_SET_NO": 999, "REV_AT_EPOCH": 82522, "BSTAR": 0.00019647534, "MEAN_MOTION_DOT": 1.22e-06, "MEAN_MOTION_DDOT": 0}, "tle": {"line1": "1 19420U 88074B   25337.14700135  .00000122  00000+0  19648-3 0  9999", "line2": "2 19420  90.0372  20.5606 0092443 267.8245 111.3176 13.42582141825224"}}, "geometry": {"type": "Point", "coordinates": [20.55485911500844, 12.044819951590338]}}]}